IRIDIUM 159             
1 43578U 18061K   25183.80549222 -.00000049  00000+0 -24631-4 0  9998
2 43578  86.3983 202.6774 0002234  96.4763 263.6687 14.34217062363303
IRIDIUM 180             
1 43922U 19002A   25184.15383090  .00000048  00000+0  99578-5 0  9995
2 43922  86.3993 139.5138 0002397  85.2161 274.9308 14.34217796339006
IRIDIUM 176             
1 43923U 19002B   25183.94091444  .00000437  00000+0  65440-4 0  9993
2 43923  86.6118 139.5942 0003034  77.1062 283.0493 14.72249863347862
IRIDIUM 168             
1 43924U 19002C   25184.14748786  .00000055  00000+0  12699-4 0  9999
2 43924  86.3995 139.5838 0002297  85.0955 275.0503 14.34217946338943
IRIDIUM 173             
1 43925U 19002D   25183.92549730  .00000048  00000+0  10213-4 0  9995
2 43925  86.3991 139.5799 0002445  83.3608 276.7866 14.34218016338902
IRIDIUM 169             
1 43926U 19002E   25183.94316195  .00000181  00000+0  52520-4 0  9990
2 43926  86.4252 171.1554 0003250  64.0314 296.1219 14.38609729340012
IRIDIUM 172             
1 43927U 19002F   25184.12846091  .00000017  00000+0 -85228-6 0  9997
2 43927  86.3991 139.5018 0002503  90.0868 270.0614 14.34217668338939
IRIDIUM 175             
1 43928U 19002G   25183.79995152  .00000379  00000+0  56068-4 0  9991
2 43928  86.1497  91.2805 0001999  63.9968 296.1454 14.72261611347834
